{
  "type": "FeatureCollection",
  "features": [
    {
      "type": "Feature",
      "properties": {
        "norad_id": 2807,
        "name": "OPS 7218 (TRANSIT 16)",
        "group": "nnss",
        "lat": -67.13569535847188,
        "lon": 174.45610075284714,
        "alt_km": 1092.454501983082,
        "timestamp": "2025-12-22T20:43:46.117153+00:00",
        "meta_object_name": "OPS 7218 (TRANSIT 16)",
        "meta_object_id": "1967-048A",
        "meta_epoch": "2025-12-22T11:11:04.665408",
        "meta_mean_motion": 13.50724324,
        "meta_eccentricity": 0.00221616,
        "meta_inclination": 89.6731,
        "meta_ra_of_asc_node": 353.6935,
        "meta_arg_of_pericenter": 88.1678,
        "meta_mean_anomaly": 26.1167,
        "meta_ephemeris_type": 0,
        "meta_classification_type": "U",
        "meta_norad_cat_id": 2807,
        "meta_element_set_no": 999,
        "meta_rev_at_epoch": 88407,
        "meta_bstar": 0.00015711372,
        "meta_mean_motion_dot": 1.12e-06,
        "meta_mean_motion_ddot": 0,
        "tle_line1": "1 02807U 67048A   25356.46602622  .00000112  00000+0  15711-3 0  9992",
        "tle_line2": "2 02807  89.6731 353.6935 0022161  88.1678  26.1167 13.50724324884078"
      },
      "geometry": {
        "type": "Point",
        "coordinates": [
          174.45610075284714,
          -67.13569535847188
        ]
      }
    },
    {
      "type": "Feature",
      "properties": {
        "norad_id": 2965,
        "name": "OPS 4947 (TRANSIT 17)",
        "group": "nnss",
        "lat": 50.613184564150146,
        "lon": 24.578956795050722,
        "alt_km": 1086.2394527914757,
        "timestamp": "2025-12-22T20:43:46.117190+00:00",
        "meta_object_name": "OPS 4947 (TRANSIT 17)",
        "meta_object_id": "1967-092A",
        "meta_epoch": "2025-12-22T13:56:16.742976",
        "meta_mean_motion": 13.53456096,
        "meta_eccentricity": 0.00469075,
        "meta_inclination": 89.2487,
        "meta_ra_of_asc_node": 23.6848,
        "meta_arg_of_pericenter": 205.2418,
        "meta_mean_anomaly": 267.7074,
        "meta_ephemeris_type": 0,
        "meta_classification_type": "U",
        "meta_norad_cat_id": 2965,
        "meta_element_set_no": 999,
        "meta_rev_at_epoch": 87230,
        "meta_bstar": 0.00018778756,
        "meta_mean_motion_dot": 1.38e-06,
        "meta_mean_motion_ddot": 0,
        "tle_line1": "1 02965U 67092A   25356.58074934  .00000138  00000+0  18779-3 0  9993",
        "tle_line2": "2 02965  89.2487  23.6848 0046907 205.2418 267.7074 13.53456096872306"
      },
      "geometry": {
        "type": "Point",
        "coordinates": [
          24.578956795050722,
          50.613184564150146
        ]
      }
    },
    {
      "type": "Feature",
      "properties": {
        "norad_id": 3133,
        "name": "OPS 7034 (TRANSIT 18)",
        "group": "nnss",
        "lat": 48.687578579025704,
        "lon": 93.70014749204535,
        "alt_km": 1007.1390575028918,
        "timestamp": "2025-12-22T20:43:46.117204+00:00",
        "meta_object_name": "OPS 7034 (TRANSIT 18)",
        "meta_object_id": "1968-012A",
        "meta_epoch": "2025-12-22T08:13:15.489696",
        "meta_mean_motion": 13.51567899,
        "meta_eccentricity": 0.00747579,
        "meta_inclination": 90.0285,
        "meta_ra_of_asc_node": 273.6662,
        "meta_arg_of_pericenter": 141.502,
        "meta_mean_anomaly": 335.4654,
        "meta_ephemeris_type": 0,
        "meta_classification_type": "U",
        "meta_norad_cat_id": 3133,
        "meta_element_set_no": 999,
        "meta_rev_at_epoch": 57048,
        "meta_bstar": 0.00020203127,
        "meta_mean_motion_dot": 1.44e-06,
        "meta_mean_motion_ddot": 0,
        "tle_line1": "1 03133U 68012A   25356.34254039  .00000144  00000+0  20203-3 0  9996",
        "tle_line2": "2 03133  90.0285 273.6662 0074757 141.5020 335.4654 13.51567899570489"
      },
      "geometry": {
        "type": "Point",
        "coordinates": [
          93.70014749204535,
          48.687578579025704
        ]
      }
    },
    {
      "type": "Feature",
      "properties": {
        "norad_id": 4507,
        "name": "NNSS 19 (TRANSIT 19)",
        "group": "nnss",
        "lat": 86.62676992687355,
        "lon": 54.62561415011226,
        "alt_km": 1184.8827896625635,
        "timestamp": "2025-12-22T20:43:46.117216+00:00",
        "meta_object_name": "NNSS 19 (TRANSIT 19)",
        "meta_object_id": "1970-067A",
        "meta_epoch": "2025-12-22T09:35:43.059552",
        "meta_mean_motion": 13.5131705,
        "meta_eccentricity": 0.01702199,
        "meta_inclination": 90.005,
        "meta_ra_of_asc_node": 234.5405,
        "meta_arg_of_pericenter": 265.1051,
        "meta_mean_anomaly": 93.0648,
        "meta_ephemeris_type": 0,
        "meta_classification_type": "U",
        "meta_norad_cat_id": 4507,
        "meta_element_set_no": 999,
        "meta_rev_at_epoch": 72352,
        "meta_bstar": 0.00016490371,
        "meta_mean_motion_dot": 1.25e-06,
        "meta_mean_motion_ddot": 0,
        "tle_line1": "1 04507U 70067A   25356.39980393  .00000125  00000+0  16490-3 0  9991",
        "tle_line2": "2 04507  90.0050 234.5405 0170219 265.1051  93.0648 13.51317050723520"
      },
      "geometry": {
        "type": "Point",
        "coordinates": [
          54.62561415011226,
          86.62676992687355
        ]
      }
    },
    {
      "type": "Feature",
      "properties": {
        "norad_id": 6909,
        "name": "NNSS 20 (TRANSIT 20)",
        "group": "nnss",
        "lat": -0.11957487073278664,
        "lon": 74.90278368278452,
        "alt_km": 1073.0893904582008,
        "timestamp": "2025-12-22T20:43:46.117228+00:00",
        "meta_object_name": "NNSS 20 (TRANSIT 20)",
        "meta_object_id": "1973-081A",
        "meta_epoch": "2025-12-22T02:21:26.013600",
        "meta_mean_motion": 13.71439096,
        "meta_eccentricity": 0.0156327,
        "meta_inclination": 89.8562,
        "meta_ra_of_asc_node": 254.914,
        "meta_arg_of_pericenter": 50.5929,
        "meta_mean_anomaly": 310.8956,
        "meta_ephemeris_type": 0,
        "meta_classification_type": "U",
        "meta_norad_cat_id": 6909,
        "meta_element_set_no": 999,
        "meta_rev_at_epoch": 80489,
        "meta_bstar": 0.00027894557,
        "meta_mean_motion_dot": 2.85e-06,
        "meta_mean_motion_ddot": 0,
        "tle_line1": "1 06909U 73081A   25356.09821775  .00000285  00000+0  27895-3 0  9991",
        "tle_line2": "2 06909  89.8562 254.9140 0156327  50.5929 310.8956 13.71439096804897"
      },
      "geometry": {
        "type": "Point",
        "coordinates": [
          74.90278368278452,
          -0.11957487073278664
        ]
      }
    },
    {
      "type": "Feature",
      "properties": {
        "norad_id": 10457,
        "name": "TRANSAT",
        "group": "nnss",
        "lat": 12.11658176092593,
        "lon": 78.31432419745079,
        "alt_km": 1094.0561219162173,
        "timestamp": "2025-12-22T20:43:46.117239+00:00",
        "meta_object_name": "TRANSAT",
        "meta_object_id": "1977-106A",
        "meta_epoch": "2025-12-22T04:43:59.924640",
        "meta_mean_motion": 13.48945163,
        "meta_eccentricity": 0.0026228,
        "meta_inclination": 89.6479,
        "meta_ra_of_asc_node": 78.2623,
        "meta_arg_of_pericenter": 162.6687,
        "meta_mean_anomaly": 214.9455,
        "meta_ephemeris_type": 0,
        "meta_classification_type": "U",
        "meta_norad_cat_id": 10457,
        "meta_element_set_no": 999,
        "meta_rev_at_epoch": 36871,
        "meta_bstar": 0.00016513241,
        "meta_mean_motion_dot": 1.14e-06,
        "meta_mean_motion_ddot": 0,
        "tle_line1": "1 10457U 77106A   25356.19722135  .00000114  00000+0  16513-3 0  9993",
        "tle_line2": "2 10457  89.6479  78.2623 0026228 162.6687 214.9455 13.48945163368715"
      },
      "geometry": {
        "type": "Point",
        "coordinates": [
          78.31432419745079,
          12.11658176092593
        ]
      }
    },
    {
      "type": "Feature",
      "properties": {
        "norad_id": 12458,
        "name": "NOVA 1",
        "group": "nnss",
        "lat": 59.667911717369265,
        "lon": 91.49413577938763,
        "alt_km": 1155.2349742072083,
        "timestamp": "2025-12-22T20:43:46.117249+00:00",
        "meta_object_name": "NOVA 1",
        "meta_object_id": "1981-044A",
        "meta_epoch": "2025-12-22T13:13:40.325952",
        "meta_mean_motion": 13.2327954,
        "meta_eccentricity": 0.00158143,
        "meta_inclination": 89.8526,
        "meta_ra_of_asc_node": 91.2465,
        "meta_arg_of_pericenter": 79.8958,
        "meta_mean_anomaly": 291.7383,
        "meta_ephemeris_type": 0,
        "meta_classification_type": "U",
        "meta_norad_cat_id": 12458,
        "meta_element_set_no": 999,
        "meta_rev_at_epoch": 15316,
        "meta_bstar": 0.0001659475,
        "meta_mean_motion_dot": 7.9e-07,
        "meta_mean_motion_ddot": 0,
        "tle_line1": "1 12458U 81044A   25356.55116118  .00000079  00000+0  16595-3 0  9990",
        "tle_line2": "2 12458  89.8526  91.2465 0015814  79.8958 291.7383 13.23279540153167"
      },
      "geometry": {
        "type": "Point",
        "coordinates": [
          91.49413577938763,
          59.667911717369265
        ]
      }
    }
  ]
}